0 THOR ABLESTAR DEB
1 00469U 61015FF  13281.40454167  .00000560  00000-0  26356-3 0  9466
2 00469 066.8370 320.7704 0059785 074.9458 285.8245 14.26138387691053
0 THOR ABLESTAR DEB
1 00469U 61015FF  13283.50842816  .00000548  00000-0  25863-3 0  9470
2 00469 066.8368 315.3322 0059825 073.1400 287.6247 14.26143144691351
0 THOR ABLESTAR DEB
1 00469U 61015FF  13285.54218031  .00000460  00000-0  22273-3 0  9488
2 00469 066.8365 310.0751 0059893 071.4079 289.3511 14.26146093691645
0 THOR ABLESTAR DEB
1 00469U 61015FF  13287.92657255  .00000837  00000-0  37683-3 0  9497
2 00469 066.8365 303.9116 0059989 069.3780 291.3737 14.26149359691980
0 THOR ABLESTAR DEB
1 00469U 61015FF  13290.10057075  .00000801  00000-0  36226-3 0  9500
2 00469 066.8365 298.2915 0060105 067.5854 293.1596 14.26152041692297
0 THOR ABLESTAR DEB
1 00469U 61015FF  13292.13430773  .00000846  00000-0  38056-3 0  9518
2 00469 066.8367 293.0342 0060200 065.9143 294.8236 14.26155583692580
0 THOR ABLESTAR DEB
1 00469U 61015FF  13294.16803997  .00000806  00000-0  36425-3 0  9520
2 00469 066.8367 287.7768 0060260 064.2732 296.4569 14.26160645692878
